$$SOE
2460154.500000000, A.D. 2023-Jul-29 00:00:00.0000, -2.768487586361170E+08, 6.938347278092232E+08, -8.027255421047637E+07,
2460161.500000000, A.D. 2023-Aug-05 00:00:00.0000, -2.844840712278861E+08, 6.909895311352700E+08, -8.109516769432583E+07,
2460168.500000000, A.D. 2023-Aug-12 00:00:00.0000, -2.920869006891555E+08, 6.880653015161369E+08, -8.190850518530405E+07,
2460175.500000000, A.D. 2023-Aug-19 00:00:00.0000, -2.996564225726044E+08, 6.850624721627604E+08, -8.271248555063561E+07,
2460182.500000000, A.D. 2023-Aug-26 00:00:00.0000, -3.071918185000482E+08, 6.819814847756913E+08, -8.350702908174467E+07,
2460189.500000000, A.D. 2023-Sep-02 00:00:00.0000, -3.146922762813330E+08, 6.788227894510268E+08, -8.429205749840102E+07,
2460196.500000000, A.D. 2023-Sep-09 00:00:00.0000, -3.221569900173686E+08, 6.755868444727299E+08, -8.506749396384233E+07,
2460203.500000000, A.D. 2023-Sep-16 00:00:00.0000, -3.295851600188912E+08, 6.722741159333578E+08, -8.583326313100290E+07,
2460210.500000000, A.D. 2023-Sep-23 00:00:00.0000, -3.369759921245964E+08, 6.688850774700261E+08, -8.658929123454097E+07,
2460217.500000000, A.D. 2023-Sep-30 00:00:00.0000, -3.443286967583331E+08, 6.654202113064750E+08, -8.733550610015139E+07,
2460224.500000000, A.D. 2023-Oct-07 00:00:00.0000, -3.516424900791087E+08, 6.618800100586959E+08, -8.807183689957237E+07,
2460231.500000000, A.D. 2023-Oct-14 00:00:00.0000, -3.589165961837659E+08, 6.582649759909405E+08, -8.879821401723066E+07,
2460238.500000000, A.D. 2023-Oct-21 00:00:00.0000, -3.661502471337611E+08, 6.545756193246007E+08, -8.951456919342205E+07,
2460245.500000000, A.D. 2023-Oct-28 00:00:00.0000, -3.733426822306483E+08, 6.508124578602841E+08, -9.022083562851557E+07,
2460252.500000000, A.D. 2023-Nov-04 00:00:00.0000, -3.804931477902747E+08, 6.469760171429920E+08, -9.091694799630454E+07,
2460259.500000000, A.D. 2023-Nov-11 00:00:00.0000, -3.876008972379587E+08, 6.430668305705945E+08, -9.160284243154973E+07,
2460266.500000000, A.D. 2023-Nov-18 00:00:00.0000, -3.946651913050124E+08, 6.390854393812579E+08, -9.227845651681951E+07,
2460273.500000000, A.D. 2023-Nov-25 00:00:00.0000, -4.016852982536820E+08, 6.350323925422940E+08, -9.294372927319476E+07,
2460280.500000000, A.D. 2023-Dec-02 00:00:00.0000, -4.086604941022760E+08, 6.309082465291246E+08, -9.359860115811563E+07,
2460287.500000000, A.D. 2023-Dec-09 00:00:00.0000, -4.155900627726936E+08, 6.267135649353372E+08, -9.424301408217266E+07,
2460294.500000000, A.D. 2023-Dec-16 00:00:00.0000, -4.224732958729239E+08, 6.224489179263481E+08, -9.487691147013664E+07,
2460301.500000000, A.D. 2023-Dec-23 00:00:00.0000, -4.293094917662708E+08, 6.181148822241763E+08, -9.550023834207913E+07,
2460308.500000000, A.D. 2023-Dec-30 00:00:00.0000, -4.360979552677585E+08, 6.137120426728485E+08, -9.611294120611227E+07,
2460315.500000000, A.D. 2024-Jan-06 00:00:00.0000, -4.428379997401615E+08, 6.092409930241029E+08, -9.671496779336441E+07,
2460322.500000000, A.D. 2024-Jan-13 00:00:00.0000, -4.495289484166105E+08, 6.047023341364720E+08, -9.730626707403681E+07,
2460329.500000000, A.D. 2024-Jan-20 00:00:00.0000, -4.561701337262327E+08, 6.000966726721516E+08, -9.788678941488722E+07,
2460336.500000000, A.D. 2024-Jan-27 00:00:00.0000, -4.627608966516994E+08, 5.954246209440145E+08, -9.845648663906896E+07,
2460343.500000000, A.D. 2024-Feb-03 00:00:00.0000, -4.693005865469844E+08, 5.906867969642740E+08, -9.901531202681375E+07,
2460350.500000000, A.D. 2024-Feb-10 00:00:00.0000, -4.757885611378712E+08, 5.858838244036448E+08, -9.956322030637027E+07,
2460357.500000000, A.D. 2024-Feb-17 00:00:00.0000, -4.822241865664825E+08, 5.810163324688487E+08, -1.001001676474242E+08,
2460364.500000000, A.D. 2024-Feb-24 00:00:00.0000, -4.886068374439316E+08, 5.760849557132176E+08, -1.006261116592152E+08,
2460371.500000000, A.D. 2024-Mar-02 00:00:00.0000, -4.949358968817909E+08, 5.710903337478675E+08, -1.011410113988099E+08,
2460378.500000000, A.D. 2024-Mar-09 00:00:00.0000, -5.012107563636224E+08, 5.660331107906057E+08, -1.016448274074822E+08,
2460385.500000000, A.D. 2024-Mar-16 00:00:00.0000, -5.074308150613132E+08, 5.609139352498477E+08, -1.021375217953931E+08,
2460392.500000000, A.D. 2024-Mar-23 00:00:00.0000, -5.135954786999125E+08, 5.557334604526354E+08, -1.026190582745015E+08,
2460399.500000000, A.D. 2024-Mar-30 00:00:00.0000, -5.197041602122700E+08, 5.504923464901621E+08, -1.030894019364209E+08,
2460406.500000000, A.D. 2024-Apr-06 00:00:00.0000, -5.257562819273435E+08, 5.451912598134125E+08, -1.035485190739502E+08,
2460413.500000000, A.D. 2024-Apr-13 00:00:00.0000, -5.317512757407985E+08, 5.398308714151664E+08, -1.039963773035408E+08,
2460420.500000000, A.D. 2024-Apr-20 00:00:00.0000, -5.376885822201966E+08, 5.344118562748812E+08, -1.044329456825897E+08,
2460427.500000000, A.D. 2024-Apr-27 00:00:00.0000, -5.435676501619782E+08, 5.289348935052347E+08, -1.048581947283340E+08,
2460434.500000000, A.D. 2024-May-04 00:00:00.0000, -5.493879365123312E+08, 5.234006664971572E+08, -1.052720964038534E+08,
2460441.500000000, A.D. 2024-May-11 00:00:00.0000, -5.551489064135747E+08, 5.178098629617667E+08, -1.056746241012556E+08,
2460448.500000000, A.D. 2024-May-18 00:00:00.0000, -5.608500332940784E+08, 5.121631748910962E+08, -1.060657526276515E+08,
2460455.500000000, A.D. 2024-May-25 00:00:00.0000, -5.664907989770342E+08, 5.064612984308221E+08, -1.064454581965927E+08,
2460462.500000000, A.D. 2024-Jun-01 00:00:00.0000, -5.720706937482717E+08, 5.007049336079199E+08, -1.068137184349449E+08,
2460469.500000000, A.D. 2024-Jun-08 00:00:00.0000, -5.775892161367898E+08, 4.948947838906258E+08, -1.071705124294293E+08,
2460476.500000000, A.D. 2024-Jun-15 00:00:00.0000, -5.830458720085372E+08, 4.890315561260786E+08, -1.075158208046767E+08,
2460483.500000000, A.D. 2024-Jun-22 00:00:00.0000, -5.884401739787911E+08, 4.831159620310782E+08, -1.078496256443279E+08,
2460490.500000000, A.D. 2024-Jun-29 00:00:00.0000, -5.937716432648880E+08, 4.771487194155895E+08, -1.081719102092062E+08,
2460497.500000000, A.D. 2024-Jul-06 00:00:00.0000, -5.990398113340732E+08, 4.711305506681904E+08, -1.084826588968651E+08,
2460504.500000000, A.D. 2024-Jul-13 00:00:00.0000, -6.042442193969233E+08, 4.650621813274298E+08, -1.087818573902241E+08,
2460511.500000000, A.D. 2024-Jul-20 00:00:00.0000, -6.093844177320615E+08, 4.589443398876904E+08, -1.090694927191745E+08,
2460518.500000000, A.D. 2024-Jul-27 00:00:00.0000, -6.144599654982285E+08, 4.527777578801562E+08, -1.093455532534014E+08,
2460525.500000000, A.D. 2024-Aug-03 00:00:00.0000, -6.194704307607765E+08, 4.465631698539948E+08, -1.096100286821475E+08,
2460532.500000000, A.D. 2024-Aug-10 00:00:00.0000, -6.244153905668663E+08, 4.403013132534192E+08, -1.098629099966199E+08,
2460539.500000000, A.D. 2024-Aug-17 00:00:00.0000, -6.292944310221802E+08, 4.339929282126176E+08, -1.101041894778190E+08,
2460546.500000000, A.D. 2024-Aug-24 00:00:00.0000, -6.341071473414606E+08, 4.276387572467217E+08, -1.103338606944471E+08,
2460553.500000000, A.D. 2024-Aug-31 00:00:00.0000, -6.388531437573612E+08, 4.212395447778016E+08, -1.105519185268228E+08,
2460560.500000000, A.D. 2024-Sep-07 00:00:00.0000, -6.435320329221448E+08, 4.147960366227078E+08, -1.107583592402874E+08,
2460567.500000000, A.D. 2024-Sep-14 00:00:00.0000, -6.481434347170058E+08, 4.083089804389666E+08, -1.109531805347873E+08,
2460574.500000000, A.D. 2024-Sep-21 00:00:00.0000, -6.526869764979680E+08, 4.017791275416026E+08, -1.111363813510941E+08,
2460581.500000000, A.D. 2024-Sep-28 00:00:00.0000, -6.571622952659259E+08, 3.952072328636254E+08, -1.113079616529509E+08,
2460588.500000000, A.D. 2024-Oct-05 00:00:00.0000, -6.615690380908768E+08, 3.885940530620386E+08, -1.114679225216692E+08,
2460595.500000000, A.D. 2024-Oct-12 00:00:00.0000, -6.659068611508125E+08, 3.819403457493691E+08, -1.116162662865676E+08,
2460602.500000000, A.D. 2024-Oct-19 00:00:00.0000, -6.701754291363678E+08, 3.752468695799696E+08, -1.117529965528701E+08,
2460609.500000000, A.D. 2024-Oct-26 00:00:00.0000, -6.743744150536710E+08, 3.685143843899697E+08, -1.118781181896490E+08,
2460616.500000000, A.D. 2024-Nov-02 00:00:00.0000, -6.785035001679686E+08, 3.617436512427853E+08, -1.119916373135410E+08,
2460623.500000000, A.D. 2024-Nov-09 00:00:00.0000, -6.825623739912753E+08, 3.549354324011645E+08, -1.120935612753626E+08,
2460630.500000000, A.D. 2024-Nov-16 00:00:00.0000, -6.865507342879926E+08, 3.480904912263198E+08, -1.121838986519270E+08,
2460637.500000000, A.D. 2024-Nov-23 00:00:00.0000, -6.904682870514423E+08, 3.412095919545158E+08, -1.122626592513728E+08,
2460644.500000000, A.D. 2024-Nov-30 00:00:00.0000, -6.943147462428764E+08, 3.342934993087212E+08, -1.123298541545131E+08,
2460651.500000000, A.D. 2024-Dec-07 00:00:00.0000, -6.980898328734208E+08, 3.273429783661355E+08, -1.123854957961860E+08,
2460658.500000000, A.D. 2024-Dec-14 00:00:00.0000, -7.017932741175598E+08, 3.203587959056697E+08, -1.124295979233090E+08,
2460665.500000000, A.D. 2024-Dec-21 00:00:00.0000, -7.054248047768643E+08, 3.133417219947816E+08, -1.124621753182874E+08,
2460672.500000000, A.D. 2024-Dec-28 00:00:00.0000, -7.089841691215287E+08, 3.062925288486270E+08, -1.124832437110680E+08,
2460679.500000000, A.D. 2025-Jan-04 00:00:00.0000, -7.124711205122190E+08, 2.992119893377703E+08, -1.124928199235890E+08,
2460686.500000000, A.D. 2025-Jan-11 00:00:00.0000, -7.158854206233926E+08, 2.921008768041573E+08, -1.124909219436709E+08,
2460693.500000000, A.D. 2025-Jan-18 00:00:00.0000, -7.192268391851170E+08, 2.849599652665616E+08, -1.124775689191418E+08,
2460700.500000000, A.D. 2025-Jan-25 00:00:00.0000, -7.224951539998997E+08, 2.777900295410743E+08, -1.124527811330990E+08,
2460707.500000000, A.D. 2025-Feb-01 00:00:00.0000, -7.256901510449401E+08, 2.705918452465944E+08, -1.124165799799068E+08,
2460714.500000000, A.D. 2025-Feb-08 00:00:00.0000, -7.288116246012864E+08, 2.633661887150403E+08, -1.123689879454394E+08,
$$EOE